{
    "week": 289,
    "satellites": [
        {
            "Name": "BEIDOU-3 M24 (C46)",
            "Line1": "1 44542U 19061A   24296.24198609 -.00000012  00000+0  00000+0 0  9990",
            "Line2": "2 44542  54.4286 203.0697 0008740   4.1257 355.9312  1.86229384 34564",
            "SatelliteNumber": "44542",
            "Classification": "U",
            "LaunchYear": "19",
            "LaunchNumber": "061",
            "PieceOfLaunch": "A",
            "EpochYear": "24",
            "EpochDay": 296.24198609,
            "FirstDerivativeMeanMotion": -1.2e-07,
            "SecondDerivativeMeanMotion": "00000+0",
            "BSTAR": "00000+0",
            "SetNumber": "999",
            "Inclination": 54.4286,
            "RAAN": 203.0697,
            "Eccentricity": 0.000874,
            "ArgumentOfPerigee": 4.1257,
            "MeanAnomaly": 355.9312,
            "MeanMotion": 1.86229384,
            "RevolutionNumber": "3456"
        },
        {
            "Name": "BEIDOU-3 M23 (C45)",
            "Line1": "1 44543U 19061B   24296.67438713 -.00000019  00000+0  00000+0 0  9998",
            "Line2": "2 44543  54.4271 203.0237 0005572 355.1005 207.4344  1.86229577 34570",
            "SatelliteNumber": "44543",
            "Classification": "U",
            "LaunchYear": "19",
            "LaunchNumber": "061",
            "PieceOfLaunch": "B",
            "EpochYear": "24",
            "EpochDay": 296.67438713,
            "FirstDerivativeMeanMotion": -1.9e-07,
            "SecondDerivativeMeanMotion": "00000+0",
            "BSTAR": "00000+0",
            "SetNumber": "999",
            "Inclination": 54.4271,
            "RAAN": 203.0237,
            "Eccentricity": 0.0005572,
            "ArgumentOfPerigee": 355.1005,
            "MeanAnomaly": 207.4344,
            "MeanMotion": 1.86229577,
            "RevolutionNumber": "3457"
        },
        {
            "Name": "BEIDOU-3 IGSO-3 (C40)",
            "Line1": "1 44709U 19073A   24296.38102074 -.00000179  00000+0  00000+0 0  9998",
            "Line2": "2 44709  55.8369 287.3757 0040883 191.2219 168.6475  1.00263597 18413",
            "SatelliteNumber": "44709",
            "Classification": "U",
            "LaunchYear": "19",
            "LaunchNumber": "073",
            "PieceOfLaunch": "A",
            "EpochYear": "24",
            "EpochDay": 296.38102074,
            "FirstDerivativeMeanMotion": -1.79e-06,
            "SecondDerivativeMeanMotion": "00000+0",
            "BSTAR": "00000+0",
            "SetNumber": "999",
            "Inclination": 55.8369,
            "RAAN": 287.3757,
            "Eccentricity": 0.0040883,
            "ArgumentOfPerigee": 191.2219,
            "MeanAnomaly": 168.6475,
            "MeanMotion": 1.00263597,
            "RevolutionNumber": "1841"
        },
        {
            "Name": "BEIDOU-3 M22 (C44)",
            "Line1": "1 44793U 19078A   24296.08669613 -.00000073  00000+0  00000+0 0  9993",
            "Line2": "2 44793  54.4644 320.9517 0004747  12.9936 347.0567  1.86232069 33415",
            "SatelliteNumber": "44793",
            "Classification": "U",
            "LaunchYear": "19",
            "LaunchNumber": "078",
            "PieceOfLaunch": "A",
            "EpochYear": "24",
            "EpochDay": 296.08669613,
            "FirstDerivativeMeanMotion": -7.3e-07,
            "SecondDerivativeMeanMotion": "00000+0",
            "BSTAR": "00000+0",
            "SetNumber": "999",
            "Inclination": 54.4644,
            "RAAN": 320.9517,
            "Eccentricity": 0.0004747,
            "ArgumentOfPerigee": 12.9936,
            "MeanAnomaly": 347.0567,
            "MeanMotion": 1.86232069,
            "RevolutionNumber": "3341"
        },
        {
            "Name": "BEIDOU-3 M21 (C43)",
            "Line1": "1 44794U 19078B   24297.29005863 -.00000071  00000+0  00000+0 0  9997",
            "Line2": "2 44794  54.4371 320.8829 0003064 353.2826   6.7514  1.86232643 33440",
            "SatelliteNumber": "44794",
            "Classification": "U",
            "LaunchYear": "19",
            "LaunchNumber": "078",
            "PieceOfLaunch": "B",
            "EpochYear": "24",
            "EpochDay": 297.29005863,
            "FirstDerivativeMeanMotion": -7.1e-07,
            "SecondDerivativeMeanMotion": "00000+0",
            "BSTAR": "00000+0",
            "SetNumber": "999",
            "Inclination": 54.4371,
            "RAAN": 320.8829,
            "Eccentricity": 0.0003064,
            "ArgumentOfPerigee": 353.2826,
            "MeanAnomaly": 6.7514,
            "MeanMotion": 1.86232643,
            "RevolutionNumber": "3344"
        },
        {
            "Name": "BEIDOU-3 M19 (C41)",
            "Line1": "1 44864U 19090A   24297.28313281  .00000006  00000+0  00000+0 0  9991",
            "Line2": "2 44864  56.0349  82.7740 0015631 279.4092 268.2291  1.86231546 33015",
            "SatelliteNumber": "44864",
            "Classification": "U",
            "LaunchYear": "19",
            "LaunchNumber": "090",
            "PieceOfLaunch": "A",
            "EpochYear": "24",
            "EpochDay": 297.28313281,
            "FirstDerivativeMeanMotion": 6e-08,
            "SecondDerivativeMeanMotion": "00000+0",
            "BSTAR": "00000+0",
            "SetNumber": "999",
            "Inclination": 56.0349,
            "RAAN": 82.774,
            "Eccentricity": 0.0015631,
            "ArgumentOfPerigee": 279.4092,
            "MeanAnomaly": 268.2291,
            "MeanMotion": 1.86231546,
            "RevolutionNumber": "3301"
        },
        {
            "Name": "BEIDOU-3 M20 (C42)",
            "Line1": "1 44865U 19090B   24297.38407124  .00000006  00000+0  00000+0 0  9993",
            "Line2": "2 44865  56.0369  82.8042 0013087 294.1133  50.8980  1.86231509 33005",
            "SatelliteNumber": "44865",
            "Classification": "U",
            "LaunchYear": "19",
            "LaunchNumber": "090",
            "PieceOfLaunch": "B",
            "EpochYear": "24",
            "EpochDay": 297.38407124,
            "FirstDerivativeMeanMotion": 6e-08,
            "SecondDerivativeMeanMotion": "00000+0",
            "BSTAR": "00000+0",
            "SetNumber": "999",
            "Inclination": 56.0369,
            "RAAN": 82.8042,
            "Eccentricity": 0.0013087,
            "ArgumentOfPerigee": 294.1133,
            "MeanAnomaly": 50.898,
            "MeanMotion": 1.86231509,
            "RevolutionNumber": "3300"
        },
        {
            "Name": "BEIDOU-3 G2 (C60)",
            "Line1": "1 45344U 20017A   24296.72877464 -.00000149  00000+0  00000+0 0  9991",
            "Line2": "2 45344   2.4890  34.1097 0004275 203.1327 136.8189  1.00271781 17219",
            "SatelliteNumber": "45344",
            "Classification": "U",
            "LaunchYear": "20",
            "LaunchNumber": "017",
            "PieceOfLaunch": "A",
            "EpochYear": "24",
            "EpochDay": 296.72877464,
            "FirstDerivativeMeanMotion": -1.49e-06,
            "SecondDerivativeMeanMotion": "00000+0",
            "BSTAR": "00000+0",
            "SetNumber": "999",
            "Inclination": 2.489,
            "RAAN": 34.1097,
            "Eccentricity": 0.0004275,
            "ArgumentOfPerigee": 203.1327,
            "MeanAnomaly": 136.8189,
            "MeanMotion": 1.00271781,
            "RevolutionNumber": "1721"
        },
        {
            "Name": "BEIDOU-3 G3 (C61)",
            "Line1": "1 45807U 20040A   24296.55987306 -.00000360  00000+0  00000+0 0  9994",
            "Line2": "2 45807   1.0215  54.2118 0003194 285.3645   3.8787  1.00264607 16046",
            "SatelliteNumber": "45807",
            "Classification": "U",
            "LaunchYear": "20",
            "LaunchNumber": "040",
            "PieceOfLaunch": "A",
            "EpochYear": "24",
            "EpochDay": 296.55987306,
            "FirstDerivativeMeanMotion": -3.6e-06,
            "SecondDerivativeMeanMotion": "00000+0",
            "BSTAR": "00000+0",
            "SetNumber": "999",
            "Inclination": 1.0215,
            "RAAN": 54.2118,
            "Eccentricity": 0.0003194,
            "ArgumentOfPerigee": 285.3645,
            "MeanAnomaly": 3.8787,
            "MeanMotion": 1.00264607,
            "RevolutionNumber": "1604"
        },
        {
            "Name": "BEIDOU-3 G4 (C62)",
            "Line1": "1 56564U 23066A   24296.87574491 -.00000121  00000+0  00000+0 0  9994",
            "Line2": "2 56564   1.8086 288.7549 0005374 248.4834 329.8604  1.00272414  5352",
            "SatelliteNumber": "56564",
            "Classification": "U",
            "LaunchYear": "23",
            "LaunchNumber": "066",
            "PieceOfLaunch": "A",
            "EpochYear": "24",
            "EpochDay": 296.87574491,
            "FirstDerivativeMeanMotion": -1.21e-06,
            "SecondDerivativeMeanMotion": "00000+0",
            "BSTAR": "00000+0",
            "SetNumber": "999",
            "Inclination": 1.8086,
            "RAAN": 288.7549,
            "Eccentricity": 0.0005374,
            "ArgumentOfPerigee": 248.4834,
            "MeanAnomaly": 329.8604,
            "MeanMotion": 1.00272414,
            "RevolutionNumber": "535"
        }
    ]
}